NAVSTAR 48 (USA 151)    
1 26407U 00040A   26185.72406970  .00000073  00000+0  00000+0 0  9998
2 26407  54.8496 214.4657 0120731 302.6201  43.3862  2.00557820190290
NAVSTAR 51 (USA 166)    
1 27663U 03005A   26185.06323736  .00000070  00000+0  00000+0 0  9999
2 27663  54.8802 214.2982 0148096  53.1273 311.8752  2.00559687171659
NAVSTAR 54 (USA 177)    
1 28190U 04009A   26185.33985068 -.00000020  00000+0  00000+0 0  9998
2 28190  54.8153 274.9939 0116793 173.8654 183.6312  2.00554193163285
NAVSTAR 56 (USA 180)    
1 28474U 04045A   26185.74835539 -.00000069  00000+0  00000+0 0  9998
2 28474  55.1251 324.1893 0170017 316.8171  40.6346  2.00556723158770
NAVSTAR 57 (USA 183)    
1 28874U 05038A   26185.84035304 -.00000017  00000+0  00000+0 0  9991
2 28874  54.8637 272.4647 0128095 296.3016  91.8878  2.00564490152197
INMARSAT 4-F2           
1 28899U 05044A   26185.53572920 -.00000250  00000+0  00000+0 0  9990
2 28899   5.1161  43.6573 0003140  51.2893 163.9427  1.00270872 75692
NAVSTAR 58 (USA 190)    
1 29486U 06042A   26184.96127438  .00000065  00000+0  00000+0 0  9991
2 29486  54.7124 150.6730 0106904  54.8465 317.3501  2.00568922144731
NAVSTAR 59 (USA 192)    
1 29601U 06052A   26184.37329749  .00000068  00000+0  00000+0 0  9998
2 29601  54.9334 213.3645 0084858  90.9443 270.0914  2.00559061143733
NAVSTAR 60 (USA 196)    
1 32260U 07047A   26184.67866706 -.00000021  00000+0  00000+0 0  9990
2 32260  54.1070  79.3861 0167390  87.7383 274.2267  2.00554541137140
COSMOS 2433 [GLONASS-M] 
1 32275U 07052A   26185.74742425 -.00000043  00000+0  00000+0 0  9996
2 32275  65.5657 315.3427 0003117 200.1017 159.8949  2.13104407145437
COSMOS 2432 [GLONASS-M] 
1 32276U 07052B   26185.11473172 -.00000044  00000+0  00000+0 0  9999
2 32276  65.5822 315.4920 0007460 326.1716 212.2631  2.13103452145443
NAVSTAR 61 (USA 199)    
1 32384U 07062A   26185.49975398 -.00000018  00000+0  00000+0 0  9999
2 32384  55.0179 273.4562 0035951 166.7855 193.7684  2.00561107135862
COSMOS 2434 [GLONASS-M] 
1 32393U 07065A   26186.35737861  .00000103  00000+0  00000+0 0  9993
2 32393  64.3195 191.3029 0001267 327.6857  30.0012  2.13101492144153
COSMOS 2436 [GLONASS-M] 
1 32395U 07065C   26185.95710714  .00000099  00000+0  00000+0 0  9992
2 32395  64.3280 191.3887 0017282 353.5770 189.2723  2.13100233144101
NAVSTAR 62 (USA 201)    
1 32711U 08012A   26186.08410476  .00000073  00000+0  00000+0 0  9996
2 32711  54.4993 149.2099 0211566 248.0460 109.6695  2.00572897134115
NAVSTAR 64 (USA 206)    
1 35752U 09043A   26185.31102860 -.00000059  00000+0  00000+0 0  9994
2 35752  56.2210  26.7798 0053802  83.9260  86.3327  2.00553427123705
COSMOS 2456 [GLONASS-M] 
1 36111U 09070A   26183.67073075 -.00000011  00000+0  00000+0 0  9994
2 36111  65.0199  70.4441 0003835 338.5659 276.2480  2.13103720128753
COSMOS 2457 [GLONASS-M] 
1 36112U 09070B   26185.75624490 -.00000012  00000+0  00000+0 0  9990
2 36112  65.0071  70.2163 0003633 124.1851  57.8253  2.13101378128805
COSMOS 2460 [GLONASS-M] 
1 36402U 10007C   26185.99916333 -.00000043  00000+0  00000+0 0  9994
2 36402  65.4092 313.8639 0001892 127.0261 243.3018  2.13101962127113
NAVSTAR 65 (USA 213)    
1 36585U 10022A   26186.15975706  .00000082  00000+0  00000+0 0  9993
2 36585  54.2693 207.8381 0126534  66.1440 116.3083  2.00563302117955
BEIDOU-2 IGSO-1         
1 36828U 10036A   26185.97829638 -.00000073  00000+0  00000+0 0  9990
2 36828  54.3059 162.7991 0059183 225.2498 354.5072  1.00267280 58272
BEIDOU-2 G4             
1 37210U 10057A   26186.35338730 -.00000101  00000+0  00000+0 0  9992
2 37210   3.6892  68.8383 0004974 187.3736 314.3298  1.00271193 57475
BEIDOU-2 IGSO-2         
1 37256U 10068A   26185.78653084 -.00000194  00000+0  00000+0 0  9994
2 37256  47.5153 271.6140 0056612 213.9633 188.6395  1.00277550 56972
BEIDOU-2 IGSO-3         
1 37384U 11013A   26185.97381966 -.00000165  00000+0  00000+0 0  9993
2 37384  62.4314  39.9847 0035240 183.4155 157.1705  1.00263911 55838
GSAT-8                  
1 37605U 11022A   26185.51831509  .00000096  00000+0  00000+0 0  9994
2 37605   2.1730  81.6229 0002128 166.7757 275.8147  1.00271356 53395
BEIDOU-2 IGSO-4         
1 37763U 11038A   26185.97739419  .00000036  00000+0  00000+0 0  9997
2 37763  54.6038 165.5148 0159950 231.4052 331.9664  1.00281969 54827
GSAT0101 (GALILEO-PFM)  
1 37846U 11060A   26184.27277324 -.00000076  00000+0  00000+0 0  9993
2 37846  56.9888 341.3256 0002656  57.8189 302.2010  1.70475789 91393
GSAT0102 (GALILEO-FM2)  
1 37847U 11060B   26184.78699916 -.00000075  00000+0  00000+0 0  9994
2 37847  56.9894 341.3121 0002522  12.9231 348.3249  1.70476028 91419
COSMOS 2476 [GLONASS-M] 
1 37867U 11064A   26184.63293293 -.00000008  00000+0  00000+0 0  9998
2 37867  65.2791  72.3163 0022386 237.0520 304.2644  2.13104036114116
COSMOS 2477 [GLONASS-M] 
1 37868U 11064B   26185.82219672 -.00000010  00000+0  00000+0 0  9993
2 37868  65.2859  72.3558 0019445 238.0164 315.9569  2.13103228114136
COSMOS 2475 [GLONASS-M] 
1 37869U 11064C   26186.29370346 -.00000012  00000+0  00000+0 0  9994
2 37869  65.2933  72.3614 0025161 251.8133 258.9288  2.13102046114157
